ORBCOMM FM40            
1 33065U 08031F   24310.42997705  .00010141  00000+0  13573-2 0  9999
2 33065  48.4419 313.5612 0006291 143.1722   9.3377 14.79818432880998
VESSELSAT 1             
1 37840U 11058C   24310.46581573  .00000797  00000+0  29032-3 0  9997
2 37840  19.9636   7.5327 0013469 245.6706 114.2292 14.11254730674663
ORBCOMM FM109           
1 40086U 14040A   24310.48883648  .00003663  00000+0  83458-3 0  9994
2 40086  47.0038 352.2301 0002398 339.1737  20.9051 14.57504560548420
ORBCOMM FM111           
1 40089U 14040D   24310.61614715  .00009537  00000+0  11514-2 0  9998
2 40089  47.0031  71.7201 0032477 206.4012 153.5229 14.83791334556998
ORBCOMM FM104           
1 40090U 14040E   24310.54741383  .00003211  00000+0  76085-3 0  9992
2 40090  47.0057  23.9437 0017802 263.9383  95.9473 14.55890964548025
